OBJECT_NAME,OBJECT_ID,EPOCH,MEAN_MOTION,ECCENTRICITY,INCLINATION,RA_OF_ASC_NODE,ARG_OF_PERICENTER,MEAN_ANOMALY,EPHEMERIS_TYPE,CLASSIFICATION_TYPE,NORAD_CAT_ID,ELEMENT_SET_NO,REV_AT_EPOCH,BSTAR,MEAN_MOTION_DOT,MEAN_MOTION_DDOT
HAWK-5A,2022-057AB,2026-06-27T04:03:45.989856,15.51735642,.00048216,97.6611,337.6641,45.8178,314.3469,0,U,52757,999,22789,.35331764E-3,.20988E-3,0
HAWK-6B,2023-011A,2026-06-27T00:27:43.399584,15.23016658,.00013501,40.4995,294.7226,106.4232,253.6726,0,U,55324,999,18934,.20616224E-3,.476E-4,0
HAWK-6C,2023-011C,2026-06-27T00:26:48.933024,15.23009964,.00019895,40.4978,291.5638,81.8306,278.2729,0,U,55326,999,18935,.20276034E-3,.4677E-4,0
HAWK-6A,2023-011D,2026-06-27T00:26:52.016640,15.23014894,.00015764,40.4992,293.1892,76.0949,284.0036,0,U,55327,999,18935,.20946163E-3,.4839E-4,0
HAWK-7A,2023-054P,2026-06-27T04:47:02.368608,15.27460883,.00034979,97.2696,65.2823,34.2908,325.8557,0,U,56191,999,17855,.22059908E-3,.5857E-4,0
HAWK-7B,2023-054R,2026-06-27T06:21:16.271424,15.27460005,.00031157,97.2724,63.6137,50.3379,309.8135,0,U,56193,999,17856,.2193098E-3,.5822E-4,0
HAWK-7C,2023-054Y,2026-06-27T06:21:06.160032,15.27460003,.00029326,97.2700,64.3791,40.7643,319.3816,0,U,56200,999,17856,.21561188E-3,.5722E-4,0
